ONEWEB-0435             
1 51632U 22012L   26015.63330391 -.00000485  00000+0 -14247-2 0  9994
2 51632  87.8774  66.6933 0001525  88.2048 271.9254 13.10374746189336
ONEWEB-0436             
1 51633U 22012M   26015.58051751  .00000065  00000+0  13483-3 0  9993
2 51633  87.9092  36.1675 0001573  88.9512 271.1800 13.17650119193581
ONEWEB-0438             
1 51634U 22012N   26015.69306352 -.00000414  00000+0 -12231-2 0  9995
2 51634  87.8767  66.6818 0001953  99.4704 260.6644 13.10371179189379
ONEWEB-0439             
1 51635U 22012P   26015.62002326 -.00000584  00000+0 -17086-2 0  9994
2 51635  87.8772  66.6856 0001814  96.7605 263.3729 13.10371477189346
ONEWEB-0442             
1 51636U 22012Q   26015.57291950  .00000044  00000+0  80789-4 0  9993
2 51636  87.9082  36.2135 0002374 100.4338 259.7061 13.17656657193574
ONEWEB-0443             
1 51637U 22012R   26015.97201560  .00000063  00000+0  12865-3 0  9996
2 51637  87.9079  36.1374 0002059  86.3073 273.8294 13.17649752193677
ONEWEB-0444             
1 51638U 22012S   26015.68642741 -.00000182  00000+0 -55776-3 0  9997
2 51638  87.8770  66.6705 0001782  96.7645 263.3685 13.10370115189369
ONEWEB-0445             
1 51639U 22012T   26015.63164064 -.00000878  00000+0 -25508-2 0  9991
2 51639  87.8787  66.6536 0001827 105.2336 254.8994 13.10371466189361
